{"type": "FeatureCollection", "features": [{"type": "Feature", "properties": {"norad_id": 25590, "name": "COSMOS 2361", "group": "musson", "lat": -67.24744492798422, "lon": -43.129027224635024, "alt_km": 985.8848277499419, "timestamp": "2025-12-26T06:43:29.781344+00:00", "meta": {"OBJECT_NAME": "COSMOS 2361", "OBJECT_ID": "1998-076A", "EPOCH": "2025-12-25T22:34:17.559264", "MEAN_MOTION": 13.73218939, "ECCENTRICITY": 0.00303504, "INCLINATION": 82.9346, "RA_OF_ASC_NODE": 334.3225, "ARG_OF_PERICENTER": 227.4099, "MEAN_ANOMALY": 185.4885, "EPHEMERIS_TYPE": 0, "CLASSIFICATION_TYPE": "U", "NORAD_CAT_ID": 25590, "ELEMENT_SET_NO": 999, "REV_AT_EPOCH": 35292, "BSTAR": 5.7758649e-05, "MEAN_MOTION_DOT": 6.9e-07, "MEAN_MOTION_DDOT": 0}, "tle": {"line1": "1 25590U 98076A   25359.94048101  .00000069  00000+0  57759-4 0  9993", "line2": "2 25590  82.9346 334.3225 0030350 227.4099 185.4885 13.73218939352927"}}, "geometry": {"type": "Point", "coordinates": [-43.129027224635024, -67.24744492798422]}}, {"type": "Feature", "properties": {"norad_id": 26818, "name": "COSMOS 2378", "group": "musson", "lat": 48.14390422335987, "lon": -2.350143704158986, "alt_km": 991.9392433628946, "timestamp": "2025-12-26T06:43:29.781366+00:00", "meta": {"OBJECT_NAME": "COSMOS 2378", "OBJECT_ID": "2001-023A", "EPOCH": "2025-12-25T23:45:24.647040", "MEAN_MOTION": 13.74143057, "ECCENTRICITY": 0.00332428, "INCLINATION": 82.9272, "RA_OF_ASC_NODE": 349.8993, "ARG_OF_PERICENTER": 167.7968, "MEAN_ANOMALY": 245.782, "EPHEMERIS_TYPE": 0, "CLASSIFICATION_TYPE": "U", "NORAD_CAT_ID": 26818, "ELEMENT_SET_NO": 999, "REV_AT_EPOCH": 23105, "BSTAR": 4.1679388e-05, "MEAN_MOTION_DOT": 5.5e-07, "MEAN_MOTION_DDOT": 0}, "tle": {"line1": "1 26818U 01023A   25359.98986860  .00000055  00000+0  41679-4 0  9999", "line2": "2 26818  82.9272 349.8993 0033242 167.7968 245.7820 13.74143057231054"}}, "geometry": {"type": "Point", "coordinates": [-2.350143704158986, 48.14390422335987]}}, {"type": "Feature", "properties": {"norad_id": 27436, "name": "COSMOS 2389", "group": "musson", "lat": -54.73081268443868, "lon": -73.11338211098348, "alt_km": 981.3875177460304, "timestamp": "2025-12-26T06:43:29.781381+00:00", "meta": {"OBJECT_NAME": "COSMOS 2389", "OBJECT_ID": "2002-026A", "EPOCH": "2025-12-25T22:34:39.671616", "MEAN_MOTION": 13.75156035, "ECCENTRICITY": 0.0047036, "INCLINATION": 82.9514, "RA_OF_ASC_NODE": 297.2128, "ARG_OF_PERICENTER": 24.6878, "MEAN_ANOMALY": 40.9448, "EPHEMERIS_TYPE": 0, "CLASSIFICATION_TYPE": "U", "NORAD_CAT_ID": 27436, "ELEMENT_SET_NO": 999, "REV_AT_EPOCH": 18330, "BSTAR": 6.1720229e-05, "MEAN_MOTION_DOT": 7.5e-07, "MEAN_MOTION_DDOT": 0}, "tle": {"line1": "1 27436U 02026A   25359.94073694  .00000075  00000+0  61720-4 0  9999", "line2": "2 27436  82.9514 297.2128 0047036  24.6878  40.9448 13.75156035183309"}}, "geometry": {"type": "Point", "coordinates": [-73.11338211098348, -54.73081268443868]}}, {"type": "Feature", "properties": {"norad_id": 27818, "name": "COSMOS 2398", "group": "musson", "lat": 55.889974092388954, "lon": 72.19072179871566, "alt_km": 969.4147816135492, "timestamp": "2025-12-26T06:43:29.781392+00:00", "meta": {"OBJECT_NAME": "COSMOS 2398", "OBJECT_ID": "2003-023A", "EPOCH": "2025-12-25T19:56:23.371584", "MEAN_MOTION": 13.72387179, "ECCENTRICITY": 0.00326897, "INCLINATION": 82.9482, "RA_OF_ASC_NODE": 263.0518, "ARG_OF_PERICENTER": 76.9374, "MEAN_ANOMALY": 347.232, "EPHEMERIS_TYPE": 0, "CLASSIFICATION_TYPE": "U", "NORAD_CAT_ID": 27818, "ELEMENT_SET_NO": 999, "REV_AT_EPOCH": 12996, "BSTAR": 6.8002672e-05, "MEAN_MOTION_DOT": 7.8e-07, "MEAN_MOTION_DDOT": 0}, "tle": {"line1": "1 27818U 03023A   25359.83082606  .00000078  00000+0  68003-4 0  9996", "line2": "2 27818  82.9482 263.0518 0032689  76.9374 347.2320 13.72387179129966"}}, "geometry": {"type": "Point", "coordinates": [72.19072179871566, 55.889974092388954]}}, {"type": "Feature", "properties": {"norad_id": 28380, "name": "COSMOS 2407", "group": "musson", "lat": 29.260489137196622, "lon": 18.896766262260243, "alt_km": 995.2216892980969, "timestamp": "2025-12-26T06:43:29.781404+00:00", "meta": {"OBJECT_NAME": "COSMOS 2407", "OBJECT_ID": "2004-028A", "EPOCH": "2025-12-25T23:32:49.678656", "MEAN_MOTION": 13.76315105, "ECCENTRICITY": 0.00396892, "INCLINATION": 82.9593, "RA_OF_ASC_NODE": 203.0885, "ARG_OF_PERICENTER": 18.6233, "MEAN_ANOMALY": 90.4388, "EPHEMERIS_TYPE": 0, "CLASSIFICATION_TYPE": "U", "NORAD_CAT_ID": 28380, "ELEMENT_SET_NO": 999, "REV_AT_EPOCH": 7605, "BSTAR": 3.84354e-05, "MEAN_MOTION_DOT": 5.3e-07, "MEAN_MOTION_DDOT": 0}, "tle": {"line1": "1 28380U 04028A   25359.98113054  .00000053  00000+0  38435-4 0  9994", "line2": "2 28380  82.9593 203.0885 0039689  18.6233  90.4388 13.76315105 76055"}}, "geometry": {"type": "Point", "coordinates": [18.896766262260243, 29.260489137196622]}}, {"type": "Feature", "properties": {"norad_id": 28521, "name": "COSMOS 2414", "group": "musson", "lat": -76.0457314891643, "lon": 24.294963169941227, "alt_km": 970.9488778459217, "timestamp": "2025-12-26T06:43:29.781417+00:00", "meta": {"OBJECT_NAME": "COSMOS 2414", "OBJECT_ID": "2005-002A", "EPOCH": "2025-12-25T22:34:05.836512", "MEAN_MOTION": 13.87904599, "ECCENTRICITY": 0.00414289, "INCLINATION": 82.9488, "RA_OF_ASC_NODE": 174.6776, "ARG_OF_PERICENTER": 103.105, "MEAN_ANOMALY": 257.4742, "EPHEMERIS_TYPE": 0, "CLASSIFICATION_TYPE": "U", "NORAD_CAT_ID": 28521, "ELEMENT_SET_NO": 999, "REV_AT_EPOCH": 5978, "BSTAR": 4.6111122e-05, "MEAN_MOTION_DOT": 7.1e-07, "MEAN_MOTION_DDOT": 0}, "tle": {"line1": "1 28521U 05002A   25359.94034533  .00000071  00000+0  46111-4 0  9994", "line2": "2 28521  82.9488 174.6776 0041428 103.1050 257.4742 13.87904599 59781"}}, "geometry": {"type": "Point", "coordinates": [24.294963169941227, -76.0457314891643]}}, {"type": "Feature", "properties": {"norad_id": 32052, "name": "COSMOS 2429", "group": "musson", "lat": 48.28838013588359, "lon": 145.38192422703298, "alt_km": 995.1549636024238, "timestamp": "2025-12-26T06:43:29.781429+00:00", "meta": {"OBJECT_NAME": "COSMOS 2429", "OBJECT_ID": "2007-038A", "EPOCH": "2025-12-25T21:21:35.126496", "MEAN_MOTION": 13.75150634, "ECCENTRICITY": 0.00384551, "INCLINATION": 82.9809, "RA_OF_ASC_NODE": 333.6142, "ARG_OF_PERICENTER": 1.6193, "MEAN_ANOMALY": 358.508, "EPHEMERIS_TYPE": 0, "CLASSIFICATION_TYPE": "U", "NORAD_CAT_ID": 32052, "ELEMENT_SET_NO": 999, "REV_AT_EPOCH": 91783, "BSTAR": 4.8288402e-05, "MEAN_MOTION_DOT": 6.2e-07, "MEAN_MOTION_DDOT": 0}, "tle": {"line1": "1 32052U 07038A   25359.88998989  .00000062  00000+0  48288-4 0  9993", "line2": "2 32052  82.9809 333.6142 0038455   1.6193 358.5080 13.75150634917839"}}, "geometry": {"type": "Point", "coordinates": [145.38192422703298, 48.28838013588359]}}, {"type": "Feature", "properties": {"norad_id": 35635, "name": "COSMOS 2454", "group": "musson", "lat": 46.02346746474067, "lon": 165.74270271865186, "alt_km": 910.468690964467, "timestamp": "2025-12-26T06:43:29.781451+00:00", "meta": {"OBJECT_NAME": "COSMOS 2454", "OBJECT_ID": "2009-039A", "EPOCH": "2025-12-25T22:24:01.990368", "MEAN_MOTION": 13.8993029, "ECCENTRICITY": 0.00199529, "INCLINATION": 82.9559, "RA_OF_ASC_NODE": 158.6435, "ARG_OF_PERICENTER": 38.1138, "MEAN_ANOMALY": 73.8458, "EPHEMERIS_TYPE": 0, "CLASSIFICATION_TYPE": "U", "NORAD_CAT_ID": 35635, "ELEMENT_SET_NO": 999, "REV_AT_EPOCH": 83333, "BSTAR": 5.6405863e-05, "MEAN_MOTION_DOT": 8.5e-07, "MEAN_MOTION_DDOT": 0}, "tle": {"line1": "1 35635U 09039A   25359.93335637  .00000085  00000+0  56406-4 0  9993", "line2": "2 35635  82.9559 158.6435 0019952  38.1138  73.8458 13.89930290833333"}}, "geometry": {"type": "Point", "coordinates": [165.74270271865186, 46.02346746474067]}}, {"type": "Feature", "properties": {"norad_id": 36519, "name": "COSMOS 2463", "group": "musson", "lat": -80.05352310814537, "lon": -28.03623062702264, "alt_km": 978.3226758091969, "timestamp": "2025-12-26T06:43:29.781467+00:00", "meta": {"OBJECT_NAME": "COSMOS 2463", "OBJECT_ID": "2010-017A", "EPOCH": "2025-12-25T14:11:33.904896", "MEAN_MOTION": 13.71650272, "ECCENTRICITY": 0.0034817, "INCLINATION": 82.9603, "RA_OF_ASC_NODE": 17.2678, "ARG_OF_PERICENTER": 251.0493, "MEAN_ANOMALY": 226.2748, "EPHEMERIS_TYPE": 0, "CLASSIFICATION_TYPE": "U", "NORAD_CAT_ID": 36519, "ELEMENT_SET_NO": 999, "REV_AT_EPOCH": 78413, "BSTAR": 3.5333e-05, "MEAN_MOTION_DOT": 4.7e-07, "MEAN_MOTION_DDOT": 0}, "tle": {"line1": "1 36519U 10017A   25359.59136464  .00000047  00000+0  35333-4 0  9996", "line2": "2 36519  82.9603  17.2678 0034817 251.0493 226.2748 13.71650272784130"}}, "geometry": {"type": "Point", "coordinates": [-28.03623062702264, -80.05352310814537]}}]}